{"type": "FeatureCollection", "features": [ {"type": "Feature", "properties": {"norad_id": 66949, "name": "STARLINK-36096", "group": "last-30-days", "lat": 19.945056033684303, "lon": 1.9580834091196762, "alt_km": 387.1724106778538, "timestamp": "2025-12-25T14:48:23.571599+00:00", "meta": {"OBJECT_NAME": "STARLINK-36096", "OBJECT_ID": "2025-286AA", "EPOCH": "2025-12-25T06:00:04.000320", "MEAN_MOTION": 15.60927452, "ECCENTRICITY": 0.00014428, "INCLINATION": 53.1597, "RA_OF_ASC_NODE": 347.9542, "ARG_OF_PERICENTER": 74.2926, "MEAN_ANOMALY": 49.2479, "EPHEMERIS_TYPE": 0, "CLASSIFICATION_TYPE": "U", "NORAD_CAT_ID": 66949, "ELEMENT_SET_NO": 999, "REV_AT_EPOCH": 400, "BSTAR": -0.026803849, "MEAN_MOTION_DOT": -0.02007441, "MEAN_MOTION_DDOT": 0}, "tle": {"line1": "1 66949U 25286AA  25359.25004630 -.02007441  00000+0 -26804-1 0  9991", "line2": "2 66949  53.1597 347.9542 0001442  74.2926  49.2479 15.60927452  4001"}}, "geometry": {"type": "Point", "coordinates": [1.9580834091196762, 19.945056033684303]}}, {"type": "Feature", "properties": {"norad_id": 66950, "name": "STARLINK-36111", "group": "last-30-days", "lat": 22.88040277382848, "lon": 4.6075048395085245, "alt_km": 386.68825797253703, "timestamp": "2025-12-25T14:48:23.571609+00:00", "meta": {"OBJECT_NAME": "STARLINK-36111", "OBJECT_ID": "2025-286AB", "EPOCH": "2025-12-25T06:00:04.000320", "MEAN_MOTION": 15.60929403, "ECCENTRICITY": 0.00013765, "INCLINATION": 53.1597, "RA_OF_ASC_NODE": 347.9457, "ARG_OF_PERICENTER": 74.6437, "MEAN_ANOMALY": 52.7302, "EPHEMERIS_TYPE": 0, "CLASSIFICATION_TYPE": "U", "NORAD_CAT_ID": 66950, "ELEMENT_SET_NO": 999, "REV_AT_EPOCH": 400, "BSTAR": -0.026845906, "MEAN_MOTION_DOT": -0.02010283, "MEAN_MOTION_DDOT": 0}, "tle": {"line1": "1 66950U 25286AB  25359.25004630 -.02010283  00000+0 -26846-1 0  9997", "line2": "2 66950  53.1597 347.9457 0001376  74.6437  52.7302 15.60929403  4007"}}, "geometry": {"type": "Point", "coordinates": [4.6075048395085245, 22.88040277382848]}}, {"type": "Feature", "properties": {"norad_id": 66951, "name": "STARLINK-35999", "group": "last-30-days", "lat": 24.33146963212798, "lon": 5.974918593089674, "alt_km": 386.4236602430674, "timestamp": "2025-12-25T14:48:23.571618+00:00", "meta": {"OBJECT_NAME": "STARLINK-35999", "OBJECT_ID": "2025-286AC", "EPOCH": "2025-12-25T06:00:04.000320", "MEAN_MOTION": 15.60928223, "ECCENTRICITY": 0.00013827, "INCLINATION": 53.1595, "RA_OF_ASC_NODE": 347.9414, "ARG_OF_PERICENTER": 74.7345, "MEAN_ANOMALY": 54.5567, "EPHEMERIS_TYPE": 0, "CLASSIFICATION_TYPE": "U", "NORAD_CAT_ID": 66951, "ELEMENT_SET_NO": 999, "REV_AT_EPOCH": 400, "BSTAR": -0.026801012, "MEAN_MOTION_DOT": -0.02007263, "MEAN_MOTION_DDOT": 0}, "tle": {"line1": "1 66951U 25286AC  25359.25004630 -.02007263  00000+0 -26801-1 0  9993", "line2": "2 66951  53.1595 347.9414 0001382  74.7345  54.5567 15.60928223  4007"}}, "geometry": {"type": "Point", "coordinates": [5.974918593089674, 24.33146963212798]}}, {"type": "Feature", "properties": {"norad_id": 66952, "name": "STARLINK-36122", "group": "last-30-days", "lat": 21.41781771773643, "lon": 3.268730081961887, "alt_km": 386.9226575046232, "timestamp": "2025-12-25T14:48:23.571627+00:00", "meta": {"OBJECT_NAME": "STARLINK-36122", "OBJECT_ID": "2025-286AD", "EPOCH": "2025-12-25T06:00:04.000320", "MEAN_MOTION": 15.60929669, "ECCENTRICITY": 0.00014436, "INCLINATION": 53.1594, "RA_OF_ASC_NODE": 347.9492, "ARG_OF_PERICENTER": 75.4199, "MEAN_ANOMALY": 50.0364, "EPHEMERIS_TYPE": 0, "CLASSIFICATION_TYPE": "U", "NORAD_CAT_ID": 66952, "ELEMENT_SET_NO": 999, "REV_AT_EPOCH": 400, "BSTAR": -0.026832759, "MEAN_MOTION_DOT": -0.0200949, "MEAN_MOTION_DDOT": 0}, "tle": {"line1": "1 66952U 25286AD  25359.25004630 -.02009490  00000+0 -26833-1 0  9993", "line2": "2 66952  53.1594 347.9492 0001443  75.4199  50.0364 15.60929669  4007"}}, "geometry": {"type": "Point", "coordinates": [3.268730081961887, 21.41781771773643]}}, {"type": "Feature", "properties": {"norad_id": 66953, "name": "HULIANWANG DIGUI-114", "group": "last-30-days", "lat": 5.786481147468721, "lon": 161.11891871104416, "alt_km": 1008.4218573743492, "timestamp": "2025-12-25T14:48:23.571636+00:00", "meta": {"OBJECT_NAME": "HULIANWANG DIGUI-114", "OBJECT_ID": "2025-287A", "EPOCH": "2025-12-20T09:09:14.655168", "MEAN_MOTION": 13.66161866, "ECCENTRICITY": 0.00096738, "INCLINATION": 86.496, "RA_OF_ASC_NODE": 343.3747, "ARG_OF_PERICENTER": 185.0352, "MEAN_ANOMALY": 175.071, "EPHEMERIS_TYPE": 0, "CLASSIFICATION_TYPE": "U", "NORAD_CAT_ID": 66953, "ELEMENT_SET_NO": 999, "REV_AT_EPOCH": 157, "BSTAR": 3.033618e-06, "MEAN_MOTION_DOT": 1.9e-07, "MEAN_MOTION_DDOT": 0}, "tle": {"line1": "1 66953U 25287A   25354.38141962  .00000019  00000+0  30336-5 0  9995", "line2": "2 66953  86.4960 343.3747 0009673 185.0352 175.0710 13.66161866  1572"}}, "geometry": {"type": "Point", "coordinates": [161.11891871104416, 5.786481147468721]}}, {"type": "Feature", "properties": {"norad_id": 66954, "name": "HULIANWANG DIGUI-115", "group": "last-30-days", "lat": 21.52373131767936, "lon": 160.10586354216906, "alt_km": 1021.0660746299291, "timestamp": "2025-12-25T14:48:23.571646+00:00", "meta": {"OBJECT_NAME": "HULIANWANG DIGUI-115", "OBJECT_ID": "2025-287B", "EPOCH": "2025-12-24T22:10:56.489088", "MEAN_MOTION": 13.63539042, "ECCENTRICITY": 0.0003385, "INCLINATION": 86.5036, "RA_OF_ASC_NODE": 341.7372, "ARG_OF_PERICENTER": 109.9724, "MEAN_ANOMALY": 250.1798, "EPHEMERIS_TYPE": 0, "CLASSIFICATION_TYPE": "U", "NORAD_CAT_ID": 66954, "ELEMENT_SET_NO": 999, "REV_AT_EPOCH": 219, "BSTAR": 8.442119e-06, "MEAN_MOTION_DOT": 2.3e-07, "MEAN_MOTION_DDOT": 0}, "tle": {"line1": "1 66954U 25287B   25358.92426492  .00000023  00000+0  84421-5 0  9993", "line2": "2 66954  86.5036 341.7372 0003385 109.9724 250.1798 13.63539042  2198"}}, "geometry": {"type": "Point", "coordinates": [160.10586354216906, 21.52373131767936]}}, {"type": "Feature", "properties": {"norad_id": 66955, "name": "HULIANWANG DIGUI-116", "group": "last-30-days", "lat": 7.547987062956401, "lon": 160.99470955149283, "alt_km": 1022.1925460052653, "timestamp": "2025-12-25T14:48:23.571655+00:00", "meta": {"OBJECT_NAME": "HULIANWANG DIGUI-116", "OBJECT_ID": "2025-287C", "EPOCH": "2025-12-24T23:52:55.515936", "MEAN_MOTION": 13.64194122, "ECCENTRICITY": 0.00016332, "INCLINATION": 86.4919, "RA_OF_ASC_NODE": 341.6856, "ARG_OF_PERICENTER": 94.3011, "MEAN_ANOMALY": 265.8333, "EPHEMERIS_TYPE": 0, "CLASSIFICATION_TYPE": "U", "NORAD_CAT_ID": 66955, "ELEMENT_SET_NO": 999, "REV_AT_EPOCH": 220, "BSTAR": 0.0001652864, "MEAN_MOTION_DOT": 1.48e-06, "MEAN_MOTION_DDOT": 0}, "tle": {"line1": "1 66955U 25287C   25358.99508699  .00000148  00000+0  16529-3 0  9991", "line2": "2 66955  86.4919 341.6856 0001633  94.3011 265.8333 13.64194122  2201"}}, "geometry": {"type": "Point", "coordinates": [160.99470955149283, 7.547987062956401]}}, {"type": "Feature", "properties": {"norad_id": 66956, "name": "HULIANWANG DIGUI-117", "group": "last-30-days", "lat": -6.622931923428159, "lon": 161.8806201825025, "alt_km": 1022.4748503507681, "timestamp": "2025-12-25T14:48:23.571664+00:00", "meta": {"OBJECT_NAME": "HULIANWANG DIGUI-117", "OBJECT_ID": "2025-287D", "EPOCH": "2025-12-24T22:03:29.281824", "MEAN_MOTION": 13.64670553, "ECCENTRICITY": 0.00010447, "INCLINATION": 86.4976, "RA_OF_ASC_NODE": 341.7257, "ARG_OF_PERICENTER": 103.5815, "MEAN_ANOMALY": 256.5458, "EPHEMERIS_TYPE": 0, "CLASSIFICATION_TYPE": "U", "NORAD_CAT_ID": 66956, "ELEMENT_SET_NO": 999, "REV_AT_EPOCH": 219, "BSTAR": 9.025962e-06, "MEAN_MOTION_DOT": 2.4e-07, "MEAN_MOTION_DDOT": 0}, "tle": {"line1": "1 66956U 25287D   25358.91908891  .00000024  00000+0  90260-5 0  9991", "line2": "2 66956  86.4976 341.7257 0001044 103.5815 256.5458 13.64670553  2192"}}, "geometry": {"type": "Point", "coordinates": [161.8806201825025, -6.622931923428159]}}, {"type": "Feature", "properties": {"norad_id": 66957, "name": "HULIANWANG DIGUI-118", "group": "last-30-days", "lat": -44.413922836732304, "lon": 164.90588051194135, "alt_km": 1013.6690840828842, "timestamp": "2025-12-25T14:48:23.571673+00:00", "meta": {"OBJECT_NAME": "HULIANWANG DIGUI-118", "OBJECT_ID": "2025-287E", "EPOCH": "2025-12-21T00:50:13.849728", "MEAN_MOTION": 13.6751011, "ECCENTRICITY": 0.00054729, "INCLINATION": 86.4946, "RA_OF_ASC_NODE": 343.1304, "ARG_OF_PERICENTER": 170.9065, "MEAN_ANOMALY": 189.2194, "EPHEMERIS_TYPE": 0, "CLASSIFICATION_TYPE": "U", "NORAD_CAT_ID": 66957, "ELEMENT_SET_NO": 999, "REV_AT_EPOCH": 166, "BSTAR": 0.00013223305, "MEAN_MOTION_DOT": 1.28e-06, "MEAN_MOTION_DDOT": 0}, "tle": {"line1": "1 66957U 25287E   25355.03488252  .00000128  00000+0  13223-3 0  9993", "line2": "2 66957  86.4946 343.1304 0005472 170.9065 189.2194 13.67510110  1668"}}, "geometry": {"type": "Point", "coordinates": [164.90588051194135, -44.413922836732304]}}, {"type": "Feature", "properties": {"norad_id": 66958, "name": "CZ-6A R/B", "group": "last-30-days", "lat": 10.982833889198242, "lon": -18.115423554541884, "alt_km": 864.6312179650695, "timestamp": "2025-12-25T14:48:23.571684+00:00", "meta": {"OBJECT_NAME": "CZ-6A R/B", "OBJECT_ID": "2025-287F", "EPOCH": "2025-12-25T06:08:48.178752", "MEAN_MOTION": 13.9492149, "ECCENTRICITY": 0.01071132, "INCLINATION": 86.5065, "RA_OF_ASC_NODE": 341.3424, "ARG_OF_PERICENTER": 64.5345, "MEAN_ANOMALY": 296.6864, "EPHEMERIS_TYPE": 0, "CLASSIFICATION_TYPE": "U", "NORAD_CAT_ID": 66958, "ELEMENT_SET_NO": 999, "REV_AT_EPOCH": 228, "BSTAR": 4.7232151e-05, "MEAN_MOTION_DOT": 8.5e-07, "MEAN_MOTION_DDOT": 0}, "tle": {"line1": "1 66958U 25287F   25359.25611318  .00000085  00000+0  47232-4 0  9993", "line2": "2 66958  86.5065 341.3424 0107113  64.5345 296.6864 13.94921490  2282"}}, "geometry": {"type": "Point", "coordinates": [-18.115423554541884, 10.982833889198242]}}]}